[{"OBJECT_NAME":"SPARK 2","OBJECT_ID":"2016-081D","EPOCH":"2026-03-09T21:43:21.567936","MEAN_MOTION":14.59036805,"ECCENTRICITY":0.00241409,"INCLINATION":98.5438,"RA_OF_ASC_NODE":55.7698,"ARG_OF_PERICENTER":270.8992,"MEAN_ANOMALY":88.944,"EPHEMERIS_TYPE":0,"CLASSIFICATION_TYPE":"U","NORAD_CAT_ID":41901,"ELEMENT_SET_NO":999,"REV_AT_EPOCH":48964,"BSTAR":0.00022054708,"MEAN_MOTION_DOT":9.9e-6,"MEAN_MOTION_DDOT":0},{"OBJECT_NAME":"SL-8 DEB","OBJECT_ID":"1990-111C","EPOCH":"2026-03-09T20:51:41.606784","MEAN_MOTION":14.51890911,"ECCENTRICITY":0.00122161,"INCLINATION":74.0349,"RA_OF_ASC_NODE":224.0953,"ARG_OF_PERICENTER":32.803,"MEAN_ANOMALY":89.7756,"EPHEMERIS_TYPE":0,"CLASSIFICATION_TYPE":"U","NORAD_CAT_ID":21255,"ELEMENT_SET_NO":999,"REV_AT_EPOCH":85118,"BSTAR":0.00054354352,"MEAN_MOTION_DOT":2.166e-5,"MEAN_MOTION_DDOT":0}]
